{"type": "FeatureCollection", "features": [ {"type": "Feature", "properties": {"norad_id": 66396, "name": "STARLINK-35669", "group": "last-30-days", "lat": -50.34635238700863, "lon": 169.62099490271135, "alt_km": 452.59437438273017, "timestamp": "2025-12-08T08:58:59.555444+00:00", "meta": {"OBJECT_NAME": "STARLINK-35669", "OBJECT_ID": "2025-257S", "EPOCH": "2025-12-08T00:00:04.000320", "MEAN_MOTION": 15.39599693, "ECCENTRICITY": 9.879e-05, "INCLINATION": 53.1593, "RA_OF_ASC_NODE": 286.6224, "ARG_OF_PERICENTER": 103.4391, "MEAN_ANOMALY": 235.2344, "EPHEMERIS_TYPE": 0, "CLASSIFICATION_TYPE": "U", "NORAD_CAT_ID": 66396, "ELEMENT_SET_NO": 999, "REV_AT_EPOCH": 573, "BSTAR": 0.00035279607, "MEAN_MOTION_DOT": 0.00013728, "MEAN_MOTION_DDOT": 0}, "tle": {"line1": "1 66396U 25257S   25342.00004630  .00013728  00000+0  35280-3 0  9991", "line2": "2 66396  53.1593 286.6224 0000987 103.4391 235.2344 15.39599693  5730"}}, "geometry": {"type": "Point", "coordinates": [169.62099490271135, -50.34635238700863]}}, {"type": "Feature", "properties": {"norad_id": 66397, "name": "STARLINK-35510", "group": "last-30-days", "lat": -52.38739699232261, "lon": -151.86678428418898, "alt_km": 452.8121208450402, "timestamp": "2025-12-08T08:58:59.555455+00:00", "meta": {"OBJECT_NAME": "STARLINK-35510", "OBJECT_ID": "2025-257T", "EPOCH": "2025-12-08T00:00:04.000320", "MEAN_MOTION": 15.39600405, "ECCENTRICITY": 0.00010922, "INCLINATION": 53.1598, "RA_OF_ASC_NODE": 286.5752, "ARG_OF_PERICENTER": 92.1955, "MEAN_ANOMALY": 270.4024, "EPHEMERIS_TYPE": 0, "CLASSIFICATION_TYPE": "U", "NORAD_CAT_ID": 66397, "ELEMENT_SET_NO": 999, "REV_AT_EPOCH": 573, "BSTAR": 0.00031718651, "MEAN_MOTION_DOT": 0.000123, "MEAN_MOTION_DDOT": 0}, "tle": {"line1": "1 66397U 25257T   25342.00004630  .00012300  00000+0  31719-3 0  9990", "line2": "2 66397  53.1598 286.5752 0001092  92.1955 270.4024 15.39600405  5739"}}, "geometry": {"type": "Point", "coordinates": [-151.86678428418898, -52.38739699232261]}}, {"type": "Feature", "properties": {"norad_id": 66398, "name": "STARLINK-35642", "group": "last-30-days", "lat": -41.71535389118779, "lon": -117.17901704551936, "alt_km": 452.5258738249122, "timestamp": "2025-12-08T08:58:59.555465+00:00", "meta": {"OBJECT_NAME": "STARLINK-35642", "OBJECT_ID": "2025-257U", "EPOCH": "2025-12-08T00:00:04.000320", "MEAN_MOTION": 15.39530166, "ECCENTRICITY": 0.00015765, "INCLINATION": 53.1598, "RA_OF_ASC_NODE": 286.5237, "ARG_OF_PERICENTER": 72.2581, "MEAN_ANOMALY": 316.1178, "EPHEMERIS_TYPE": 0, "CLASSIFICATION_TYPE": "U", "NORAD_CAT_ID": 66398, "ELEMENT_SET_NO": 999, "REV_AT_EPOCH": 573, "BSTAR": 0.0012295856, "MEAN_MOTION_DOT": 0.00048954, "MEAN_MOTION_DDOT": 0}, "tle": {"line1": "1 66398U 25257U   25342.00004630  .00048954  00000+0  12296-2 0  9993", "line2": "2 66398  53.1598 286.5237 0001576  72.2581 316.1178 15.39530166  5733"}}, "geometry": {"type": "Point", "coordinates": [-117.17901704551936, -41.71535389118779]}}, {"type": "Feature", "properties": {"norad_id": 66399, "name": "STARLINK-35657", "group": "last-30-days", "lat": -52.01344823742891, "lon": -148.94882524051945, "alt_km": 452.7466234270569, "timestamp": "2025-12-08T08:58:59.555476+00:00", "meta": {"OBJECT_NAME": "STARLINK-35657", "OBJECT_ID": "2025-257V", "EPOCH": "2025-12-08T00:00:04.000320", "MEAN_MOTION": 15.39608749, "ECCENTRICITY": 0.00010956, "INCLINATION": 53.1594, "RA_OF_ASC_NODE": 286.571, "ARG_OF_PERICENTER": 117.604, "MEAN_ANOMALY": 246.8114, "EPHEMERIS_TYPE": 0, "CLASSIFICATION_TYPE": "U", "NORAD_CAT_ID": 66399, "ELEMENT_SET_NO": 999, "REV_AT_EPOCH": 573, "BSTAR": 0.00026961182, "MEAN_MOTION_DOT": 0.00010396, "MEAN_MOTION_DDOT": 0}, "tle": {"line1": "1 66399U 25257V   25342.00004630  .00010396  00000+0  26961-3 0  9998", "line2": "2 66399  53.1594 286.5710 0001095 117.6040 246.8114 15.39608749  5738"}}, "geometry": {"type": "Point", "coordinates": [-148.94882524051945, -52.01344823742891]}}, {"type": "Feature", "properties": {"norad_id": 66400, "name": "STARLINK-35667", "group": "last-30-days", "lat": -24.282833605648182, "lon": -95.06131560956743, "alt_km": 447.4658034640197, "timestamp": "2025-12-08T08:58:59.555488+00:00", "meta": {"OBJECT_NAME": "STARLINK-35667", "OBJECT_ID": "2025-257W", "EPOCH": "2025-12-08T00:00:04.000320", "MEAN_MOTION": 15.42372712, "ECCENTRICITY": 0.00012618, "INCLINATION": 53.1594, "RA_OF_ASC_NODE": 286.4782, "ARG_OF_PERICENTER": 99.928, "MEAN_ANOMALY": 310.9779, "EPHEMERIS_TYPE": 0, "CLASSIFICATION_TYPE": "U", "NORAD_CAT_ID": 66400, "ELEMENT_SET_NO": 999, "REV_AT_EPOCH": 573, "BSTAR": -0.044623162, "MEAN_MOTION_DOT": -0.01767671, "MEAN_MOTION_DDOT": 0}, "tle": {"line1": "1 66400U 25257W   25342.00004630 -.01767671  00000+0 -44623-1 0  9992", "line2": "2 66400  53.1594 286.4782 0001261  99.9280 310.9779 15.42372712  5734"}}, "geometry": {"type": "Point", "coordinates": [-95.06131560956743, -24.282833605648182]}}, {"type": "Feature", "properties": {"norad_id": 66401, "name": "STARLINK-35668", "group": "last-30-days", "lat": -22.89289902721611, "lon": -93.75153989355832, "alt_km": 447.36911089062414, "timestamp": "2025-12-08T08:58:59.555499+00:00", "meta": {"OBJECT_NAME": "STARLINK-35668", "OBJECT_ID": "2025-257X", "EPOCH": "2025-12-08T00:00:04.000320", "MEAN_MOTION": 15.42368947, "ECCENTRICITY": 0.00013296, "INCLINATION": 53.1595, "RA_OF_ASC_NODE": 286.4746, "ARG_OF_PERICENTER": 96.5186, "MEAN_ANOMALY": 316.2416, "EPHEMERIS_TYPE": 0, "CLASSIFICATION_TYPE": "U", "NORAD_CAT_ID": 66401, "ELEMENT_SET_NO": 999, "REV_AT_EPOCH": 573, "BSTAR": -0.044988805, "MEAN_MOTION_DOT": -0.01780593, "MEAN_MOTION_DDOT": 0}, "tle": {"line1": "1 66401U 25257X   25342.00004630 -.01780593  00000+0 -44989-1 0  9996", "line2": "2 66401  53.1595 286.4746 0001329  96.5186 316.2416 15.42368947  5731"}}, "geometry": {"type": "Point", "coordinates": [-93.75153989355832, -22.89289902721611]}}, {"type": "Feature", "properties": {"norad_id": 66402, "name": "STARLINK-35644", "group": "last-30-days", "lat": -40.568438501435125, "lon": -115.17634451586524, "alt_km": 452.6784600465162, "timestamp": "2025-12-08T08:58:59.555509+00:00", "meta": {"OBJECT_NAME": "STARLINK-35644", "OBJECT_ID": "2025-257Y", "EPOCH": "2025-12-08T00:00:04.000320", "MEAN_MOTION": 15.39576638, "ECCENTRICITY": 0.00015155, "INCLINATION": 53.1599, "RA_OF_ASC_NODE": 286.519, "ARG_OF_PERICENTER": 102.9782, "MEAN_ANOMALY": 287.2416, "EPHEMERIS_TYPE": 0, "CLASSIFICATION_TYPE": "U", "NORAD_CAT_ID": 66402, "ELEMENT_SET_NO": 999, "REV_AT_EPOCH": 573, "BSTAR": 0.00054456209, "MEAN_MOTION_DOT": 0.00021413, "MEAN_MOTION_DDOT": 0}, "tle": {"line1": "1 66402U 25257Y   25342.00004630  .00021413  00000+0  54456-3 0  9995", "line2": "2 66402  53.1599 286.5190 0001515 102.9782 287.2416 15.39576638  5732"}}, "geometry": {"type": "Point", "coordinates": [-115.17634451586524, -40.568438501435125]}}, {"type": "Feature", "properties": {"norad_id": 66403, "name": "STARLINK-35602", "group": "last-30-days", "lat": -8.818135593019402, "lon": -82.01018302033293, "alt_km": 437.67173594820724, "timestamp": "2025-12-08T08:58:59.555520+00:00", "meta": {"OBJECT_NAME": "STARLINK-35602", "OBJECT_ID": "2025-257Z", "EPOCH": "2025-12-08T00:00:04.000320", "MEAN_MOTION": 15.45288886, "ECCENTRICITY": 9.062e-05, "INCLINATION": 53.1597, "RA_OF_ASC_NODE": 286.4457, "ARG_OF_PERICENTER": 104.9233, "MEAN_ANOMALY": 322.0995, "EPHEMERIS_TYPE": 0, "CLASSIFICATION_TYPE": "U", "NORAD_CAT_ID": 66403, "ELEMENT_SET_NO": 999, "REV_AT_EPOCH": 573, "BSTAR": -0.047123545, "MEAN_MOTION_DOT": -0.0202987, "MEAN_MOTION_DDOT": 0}, "tle": {"line1": "1 66403U 25257Z   25342.00004630 -.02029870  00000+0 -47124-1 0  9997", "line2": "2 66403  53.1597 286.4457 0000906 104.9233 322.0995 15.45288886  5734"}}, "geometry": {"type": "Point", "coordinates": [-82.01018302033293, -8.818135593019402]}}, {"type": "Feature", "properties": {"norad_id": 66404, "name": "STARLINK-35691", "group": "last-30-days", "lat": -7.332209109153446, "lon": -80.87189558287255, "alt_km": 437.4648037832849, "timestamp": "2025-12-08T08:58:59.555530+00:00", "meta": {"OBJECT_NAME": "STARLINK-35691", "OBJECT_ID": "2025-257AA", "EPOCH": "2025-12-08T00:00:04.000320", "MEAN_MOTION": 15.45284235, "ECCENTRICITY": 7.938e-05, "INCLINATION": 53.1598, "RA_OF_ASC_NODE": 286.4409, "ARG_OF_PERICENTER": 102.399, "MEAN_ANOMALY": 326.5033, "EPHEMERIS_TYPE": 0, "CLASSIFICATION_TYPE": "U", "NORAD_CAT_ID": 66404, "ELEMENT_SET_NO": 999, "REV_AT_EPOCH": 573, "BSTAR": -0.04739506, "MEAN_MOTION_DOT": -0.02039926, "MEAN_MOTION_DDOT": 0}, "tle": {"line1": "1 66404U 25257AA  25342.00004630 -.02039926  00000+0 -47395-1 0  9991", "line2": "2 66404  53.1598 286.4409 0000793 102.3990 326.5033 15.45284235  5735"}}, "geometry": {"type": "Point", "coordinates": [-80.87189558287255, -7.332209109153446]}}, {"type": "Feature", "properties": {"norad_id": 66405, "name": "STARLINK-35683", "group": "last-30-days", "lat": 5.0895654564890895, "lon": -71.53975790794574, "alt_km": 417.727425792702, "timestamp": "2025-12-08T08:58:59.555541+00:00", "meta": {"OBJECT_NAME": "STARLINK-35683", "OBJECT_ID": "2025-257AB", "EPOCH": "2025-12-07T06:38:21.607872", "MEAN_MOTION": 15.49385412, "ECCENTRICITY": 9.049e-05, "INCLINATION": 53.1609, "RA_OF_ASC_NODE": 289.8828, "ARG_OF_PERICENTER": 40.8306, "MEAN_ANOMALY": 319.2771, "EPHEMERIS_TYPE": 0, "CLASSIFICATION_TYPE": "U", "NORAD_CAT_ID": 66405, "ELEMENT_SET_NO": 999, "REV_AT_EPOCH": 546, "BSTAR": 0.0014787582, "MEAN_MOTION_DOT": 0.00082894, "MEAN_MOTION_DDOT": 0}, "tle": {"line1": "1 66405U 25257AB  25341.27663898  .00082894  00000+0  14788-2 0  9996", "line2": "2 66405  53.1609 289.8828 0000904  40.8306 319.2771 15.49385412  5463"}}, "geometry": {"type": "Point", "coordinates": [-71.53975790794574, 5.0895654564890895]}}]}